CORVUS BC1              
1 42847U 17042Y   18165.90374003 -.00000004  00000-0  49083-5 0  9990
2 42847  97.5976  68.9091 0008688 194.5189 165.5782 14.91918351 50023
SILU-1 (SILKROAD 1)     
1 42903U 17021F   18166.50183742  .00018707  00000-0  14357-3 0  9997
2 42903  42.7783 338.4251 0013746 290.9137 164.7802 15.71588803 49668
MIRATA                  
1 43015U 17073C   18166.46383553  .00000615  00000-0  54879-4 0  9999
2 43015  97.7043  97.5532 0256625 277.2390  79.9717 14.78140727 30882
MAKERSAT 0              
1 43016U 17073D   18166.24558986  .00000377  00000-0  35843-4 0  9995
2 43016  97.7072  97.4595 0257952 277.9912  79.2104 14.78152905 30844
ASTERIA                 
1 43020U 98067NH  18166.09369161  .00010377  00000-0  13586-3 0  9990
2 43020  51.6421  24.8673 0002934 151.7444 208.3709 15.59228410 32162
DELLINGR (RBLE)         
1 43021U 98067NJ  18166.46222701  .00005172  00000-0  75556-4 0  9993
2 43021  51.6396  24.3049 0002839 145.5637 214.5540 15.57514366 32208
OSIRIS-3U               
1 43027U 98067NL  18166.04320790  .00022512  00000-0  23670-3 0  9996
2 43027  51.6380  21.4936 0003970 142.5999 217.5273 15.64219738 32080
AEROCUBE 7B             
1 43042U 17071F   18165.91212499  .00001835  00000-0  57210-4 0  9993
2 43042  51.6401  52.6000 0004408 253.8239 106.2260 15.38839910 29255
AEROCUBE 7C             
1 43043U 17071G   18166.49660350  .00002167  00000-0  65713-4 0  9997
2 43043  51.6404  49.7568 0004450 259.2364 100.8119 15.38843901 29316
CHEFSAT                 
1 43044U 17071H   18166.18198312  .00003040  00000-0  85686-4 0  9990
2 43044  51.6406  50.6746 0004291 257.4714 102.5790 15.39708485 29277
ASGARDIA 1              
1 43049U 17071N   18165.89308522  .00002332  00000-0  69599-4 0  9996
2 43049  51.6404  52.4828 0001882 281.3306  78.7467 15.38975973 29224
ISARA                   
1 43050U 17071P   18166.50828094  .00002730  00000-0  78262-4 0  9997
2 43050  51.6400  49.1010 0001705 278.7564  81.3227 15.39578493 29319
FAUNA                   
1 43052U 17071R   18165.94672346  .00002326  00000-0  69173-4 0  9995
2 43052  51.6404  52.0990 0001767 277.4820  82.5963 15.39108403 29224
CORVUS BC3              
1 43118U 18004H   18166.10421592  .00000603  00000-0  29315-4 0  9999
2 43118  97.5332 228.6902 0012327 101.1536 259.1087 15.22245119 23390
MICROMAS-2A             
1 43131U 18004W   18165.86797467  .00001389  00000-0  62448-4 0  9999
2 43131  97.5341 228.5562 0011549 104.6616 255.5902 15.22793153 23367
GOMX4-B                 
1 43196U 18015E   18166.50155527  .00000229  00000-0  12464-4 0  9994
2 43196  97.3457 295.4651 0019591 158.3889 201.8163 15.23559164 20272
GOMX4-A                 
1 43197U 18015F   18166.51212016  .00000343  00000-0  17191-4 0  9992
2 43197  97.3467 295.4791 0019872 159.5515 271.8049 15.23656677 20288
UBAKUSAT                
1 43466U 98067NP  18166.07685557  .00008057  00000-0  12226-3 0  9994
2 43466  51.6428  28.9448 0001703 115.4744  17.4632 15.55578252  5376
1KUNS-PF                
1 43467U 98067NQ  18166.13104347  .00005957  00000-0  92475-4 0  9996
2 43467  51.6438  28.6695 0003994 120.4729 317.4210 15.55508516  5384
BATSU-CS1 (IRAZU)       
1 43468U 98067NR  18166.05122986  .00008717  00000-0  13104-3 0  9995
2 43468  51.6473  29.0454 0001736 116.6793 243.4371 15.55715020105356
